{
    "links": {
        "self": "http://www.neowsapp.com/rest/v1/neo/3472694?api_key=iIulBulltgU6a56xZRHN4H3l9WmuAYTsLGpBGhQ2"
    },
    "id": "3472694",
    "neo_reference_id": "3472694",
    "name": "(2009 UT87)",
    "designation": "2009 UT87",
    "nasa_jpl_url": "http://ssd.jpl.nasa.gov/sbdb.cgi?sstr=3472694",
    "absolute_magnitude_h": 22.9,
    "estimated_diameter": {
        "kilometers": {
            "estimated_diameter_min": 0.0699125232,
            "estimated_diameter_max": 0.1563291544
        },
        "meters": {
            "estimated_diameter_min": 69.9125232246,
            "estimated_diameter_max": 156.3291544087
        },
        "miles": {
            "estimated_diameter_min": 0.0434416145,
            "estimated_diameter_max": 0.097138403
        },
        "feet": {
            "estimated_diameter_min": 229.3718026961,
            "estimated_diameter_max": 512.8909429502
        }
    },
    "is_potentially_hazardous_asteroid": false,
    "close_approach_data": [
        {
            "close_approach_date": "2009-10-14",
            "close_approach_date_full": "2009-Oct-14 16:16",
            "epoch_date_close_approach": 1255536960000,
            "relative_velocity": {
                "kilometers_per_second": "8.7574588664",
                "kilometers_per_hour": "31526.8519189789",
                "miles_per_hour": "19589.5597382122"
            },
            "miss_distance": {
                "astronomical": "0.1605152536",
                "lunar": "62.4404336504",
                "kilometers": "24012740.041069832",
                "miles": "14920824.7736824016"
            },
            "orbiting_body": "Earth"
        }
    ],
    "orbital_data": {
        "orbit_id": "8",
        "orbit_determination_date": "2017-04-06 08:59:20",
        "first_observation_date": "2009-10-26",
        "last_observation_date": "2009-11-16",
        "data_arc_in_days": 21,
        "observations_used": 28,
        "orbit_uncertainty": "7",
        "minimum_orbit_intersection": ".122515",
        "jupiter_tisserand_invariant": "3.156",
        "epoch_osculation": "2459000.5",
        "eccentricity": ".5726661144395591",
        "semi_major_axis": "2.583050306178998",
        "inclination": "8.811039901537994",
        "ascending_node_longitude": "35.16907934564692",
        "orbital_period": "1516.343952000758",
        "perihelion_distance": "1.103824923937558",
        "perihelion_argument": "331.9361084713848",
        "aphelion_distance": "4.062275688420438",
        "perihelion_time": "2459673.697242319437",
        "mean_anomaly": "200.1741195226687",
        "mean_motion": ".2374131538725062",
        "equinox": "J2000",
        "orbit_class": {
            "orbit_class_type": "AMO",
            "orbit_class_description": "Near-Earth asteroid orbits similar to that of 1221 Amor",
            "orbit_class_range": "1.017 AU < q (perihelion) < 1.3 AU"
        }
    },
    "is_sentry_object": false
}